[{"OBJECT_NAME":"JILIN-1 GAOFEN 03D48","OBJECT_ID":"2022-167P","EPOCH":"2026-03-09T23:48:37.804608","MEAN_MOTION":15.32947339,"ECCENTRICITY":0.00075954,"INCLINATION":97.6781,"RA_OF_ASC_NODE":234.4968,"ARG_OF_PERICENTER":111.3084,"MEAN_ANOMALY":248.8969,"EPHEMERIS_TYPE":0,"CLASSIFICATION_TYPE":"U","NORAD_CAT_ID":54695,"ELEMENT_SET_NO":999,"REV_AT_EPOCH":18018,"BSTAR":0.00049677114,"MEAN_MOTION_DOT":0.00015755,"MEAN_MOTION_DDOT":0},{"OBJECT_NAME":"STARLINK-35260","OBJECT_ID":"2025-216T","EPOCH":"2026-03-09T22:20:01.406976","MEAN_MOTION":15.30258769,"ECCENTRICITY":0.00012728,"INCLINATION":53.1612,"RA_OF_ASC_NODE":331.5433,"ARG_OF_PERICENTER":86.9879,"MEAN_ANOMALY":273.1267,"EPHEMERIS_TYPE":0,"CLASSIFICATION_TYPE":"U","NORAD_CAT_ID":65751,"ELEMENT_SET_NO":999,"REV_AT_EPOCH":2658,"BSTAR":0.0011017405,"MEAN_MOTION_DOT":0.00032473,"MEAN_MOTION_DDOT":0}]
